{
"type": "FeatureCollection",
"name": "distance_glacier_to_worksite1",
"crs": { "type": "name", "properties": { "name": "urn:ogc:def:crs:OGC:1.3:CRS84" } },
"features": [
{ "type": "Feature", "properties": { "id": 1 }, "geometry": { "type": "MultiLineString", "coordinates": [ [ [ 85.519440584701357, 28.286758079960016 ], [ 85.516982472049619, 28.286857983688396 ], [ 85.513730199925774, 28.288389829118032 ], [ 85.511612441333511, 28.291220355070504 ], [ 85.509267780034918, 28.294716783219087 ], [ 85.505939873675644, 28.298978940276655 ], [ 85.503217041199846, 28.303107742141624 ], [ 85.500948014136725, 28.306104352830125 ], [ 85.498565535720402, 28.309500409571605 ], [ 85.497355387953363, 28.311431452305115 ], [ 85.495842703244605, 28.313362457915808 ], [ 85.493460224828297, 28.315892692826726 ], [ 85.491153380647432, 28.318123242905845 ], [ 85.489035622055155, 28.320819815597591 ], [ 85.48740948599324, 28.323516319896669 ], [ 85.486690960756576, 28.325946444185981 ], [ 85.485858984166754, 28.328376513752662 ], [ 85.485329544518706, 28.330140774583693 ], [ 85.484535385046613, 28.331605422395491 ], [ 85.481850369688544, 28.332604034329936 ], [ 85.476631607443323, 28.333369630457803 ], [ 85.465437740598432, 28.335400097821488 ], [ 85.458479390938109, 28.336598388223059 ], [ 85.450840333158851, 28.335533241866813 ], [ 85.447739329505865, 28.335200381440668 ], [ 85.443276909615008, 28.335799529456935 ], [ 85.440251540197494, 28.335799529456935 ], [ 85.436394194190115, 28.33446808483265 ], [ 85.435259680658561, 28.334068648191998 ], [ 85.431931774299301, 28.331738571195618 ], [ 85.429284576058961, 28.330407075687262 ], [ 85.426183572405975, 28.330340500473927 ], [ 85.422553129104955, 28.329941048318116 ], [ 85.419489942569712, 28.328542953949459 ], [ 85.416351121799011, 28.327377861259876 ], [ 85.414271180324477, 28.326545644376608 ], [ 85.413098849675166, 28.324581586697928 ], [ 85.413023215439736, 28.321452335091656 ], [ 85.413779557794129, 28.319121981506591 ], [ 85.414119911853589, 28.316491949683407 ], [ 85.413703923558671, 28.314061609285226 ], [ 85.412871946968849, 28.310932048062607 ], [ 85.411434896495535, 28.308235224634021 ], [ 85.409014600961484, 28.30570480961504 ], [ 85.405875780190811, 28.303240926631162 ], [ 85.402510056713808, 28.300976767635873 ], [ 85.399409053060836, 28.299012237706659 ], [ 85.397745099881206, 28.297380651383431 ], [ 85.397253477350858, 28.294716783219087 ], [ 85.395513889935771, 28.292652239532064 ], [ 85.392828874577702, 28.289555348918931 ], [ 85.389084979923524, 28.287124393172448 ], [ 85.385605805093363, 28.284560174218782 ], [ 85.381975361792328, 28.28152965402192 ], [ 85.379630700493834, 28.280060153702006 ], [ 85.376983502253481, 28.278195149595216 ], [ 85.37664314819402, 28.275364277385425 ], [ 85.377702027490145, 28.272666552683244 ], [ 85.377021319371224, 28.26893625290252 ], [ 85.37437412113087, 28.265605517734194 ], [ 85.37206727695002, 28.26187497074811 ], [ 85.368436833648971, 28.259176904503999 ], [ 85.365638366937759, 28.255979107925473 ], [ 85.365411464231443, 28.250749171388307 ], [ 85.363747511051798, 28.247551122021868 ], [ 85.360646507398812, 28.245052579222055 ], [ 85.358377480335676, 28.242187511438175 ], [ 85.357734589334456, 28.238222930262161 ], [ 85.360495238927939, 28.232658941830596 ], [ 85.361251581282318, 28.226161701941468 ], [ 85.360268336221651, 28.222696345609332 ], [ 85.357583320863597, 28.220063932445363 ], [ 85.354936122623229, 28.216831640166905 ], [ 85.354633585681484, 28.213132711429854 ], [ 85.354066328915678, 28.210333436953043 ], [ 85.354709219916913, 28.207600741102585 ], [ 85.354482317210596, 28.205201243202968 ], [ 85.35289399826641, 28.202868346352947 ], [ 85.352326741500605, 28.199068948167497 ], [ 85.3503602513792, 28.196602599844965 ], [ 85.349717360377994, 28.194136194603423 ], [ 85.348393761257825, 28.191369753436994 ], [ 85.34536839184031, 28.186369979352904 ], [ 85.342721193599957, 28.181536642150029 ], [ 85.342872462070815, 28.174436240309031 ], [ 85.34249429089364, 28.167368705666952 ], [ 85.340905971949411, 28.164901626106325 ], [ 85.338447859297673, 28.163434686971261 ], [ 85.335535941233303, 28.159467182672216 ], [ 85.330544081694384, 28.156299741740145 ], [ 85.326422015862988, 28.152365316185932 ], [ 85.321543607677214, 28.150031266600092 ], [ 85.319577117555838, 28.14816399029997 ], [ 85.316967736433213, 28.146830201579554 ], [ 85.313072573308148, 28.144496031347451 ], [ 85.311673339952534, 28.14189503888014 ], [ 85.308005079533785, 28.141361494157085 ], [ 85.305546966882034, 28.139193941392229 ], [ 85.304109916408706, 28.136192642084193 ], [ 85.302597231699949, 28.133758193113497 ], [ 85.300630741578544, 28.132324176738262 ], [ 85.299685313635578, 28.129222633827265 ], [ 85.297113749630682, 28.126321109199093 ], [ 85.29174371891456, 28.122518992518668 ], [ 85.286714042257913, 28.118049665411256 ], [ 85.283688672840398, 28.116315249492121 ], [ 85.281533097130406, 28.113947059377814 ], [ 85.277335397063581, 28.109844296391664 ], [ 85.268524008635026, 28.10223875969282 ], [ 85.264288491450486, 28.098202269029446 ], [ 85.25944790038244, 28.095333266001536 ], [ 85.253661881371414, 28.093465036752779 ], [ 85.250712146189329, 28.09253090993397 ], [ 85.247913679478117, 28.092197291242829 ], [ 85.241636037936729, 28.092130567380174 ], [ 85.235925653161132, 28.091363239978545 ], [ 85.232143941389268, 28.089628392590605 ], [ 85.229156389089454, 28.087426430531494 ], [ 85.227152081850335, 28.084657232317422 ], [ 85.222727479077207, 28.082621992916259 ], [ 85.218681047481226, 28.080486618307283 ], [ 85.215731312299155, 28.077583775358324 ], [ 85.213481193794863, 28.076182374819791 ], [ 85.211089261099133, 28.07476427232961 ] ] ] } }
]
}
