{
"type": "FeatureCollection",
"name": "distance_glacier_to_rasu",
"crs": { "type": "name", "properties": { "name": "urn:ogc:def:crs:OGC:1.3:CRS84" } },
"features": [
{ "type": "Feature", "properties": { "id": 1 }, "geometry": { "type": "MultiLineString", "coordinates": [ [ [ 85.519440584701357, 28.286758079960016 ], [ 85.516982472049619, 28.286857983688396 ], [ 85.513730199925774, 28.288389829118032 ], [ 85.511612441333511, 28.291220355070504 ], [ 85.509267780034918, 28.294716783219087 ], [ 85.505939873675644, 28.298978940276655 ], [ 85.503217041199846, 28.303107742141624 ], [ 85.500948014136725, 28.306104352830125 ], [ 85.498565535720402, 28.309500409571605 ], [ 85.497355387953363, 28.311431452305115 ], [ 85.495842703244605, 28.313362457915808 ], [ 85.493460224828297, 28.315892692826726 ], [ 85.491153380647432, 28.318123242905845 ], [ 85.489035622055155, 28.320819815597591 ], [ 85.48740948599324, 28.323516319896669 ], [ 85.486690960756576, 28.325946444185981 ], [ 85.485858984166754, 28.328376513752662 ], [ 85.485329544518706, 28.330140774583693 ], [ 85.484535385046613, 28.331605422395491 ], [ 85.481850369688544, 28.332604034329936 ], [ 85.476631607443323, 28.333369630457803 ], [ 85.465437740598432, 28.335400097821488 ], [ 85.458479390938109, 28.336598388223059 ], [ 85.450840333158851, 28.335533241866813 ], [ 85.447739329505865, 28.335200381440668 ], [ 85.443276909615008, 28.335799529456935 ], [ 85.440251540197494, 28.335799529456935 ], [ 85.436394194190115, 28.33446808483265 ], [ 85.435259680658561, 28.334068648191998 ], [ 85.431931774299301, 28.331738571195618 ], [ 85.429284576058961, 28.330407075687262 ], [ 85.426183572405975, 28.330340500473927 ], [ 85.422553129104955, 28.329941048318116 ], [ 85.419489942569712, 28.328542953949459 ], [ 85.416351121799011, 28.327377861259876 ], [ 85.414271180324477, 28.326545644376608 ], [ 85.413098849675166, 28.324581586697928 ], [ 85.413023215439736, 28.321452335091656 ], [ 85.413779557794129, 28.319121981506591 ], [ 85.414119911853589, 28.316491949683407 ], [ 85.413703923558671, 28.314061609285226 ], [ 85.412871946968849, 28.310932048062607 ], [ 85.411434896495535, 28.308235224634021 ], [ 85.409014600961484, 28.30570480961504 ], [ 85.405875780190811, 28.303240926631162 ], [ 85.402510056713808, 28.300976767635873 ], [ 85.399409053060836, 28.299012237706659 ], [ 85.397745099881206, 28.297380651383431 ], [ 85.397253477350858, 28.294716783219087 ], [ 85.395513889935771, 28.292652239532064 ], [ 85.392828874577702, 28.289555348918931 ], [ 85.389084979923524, 28.287124393172448 ], [ 85.385605805093363, 28.284560174218782 ], [ 85.381975361792328, 28.28152965402192 ], [ 85.379819786082351, 28.279931103130298 ], [ 85.377475124783771, 28.278565655242755 ] ] ] } }
]
}
