{
"type": "FeatureCollection",
"name": "glacier_burst_shape",
"crs": { "type": "name", "properties": { "name": "urn:ogc:def:crs:OGC:1.3:CRS84" } },
"features": [
{ "type": "Feature", "properties": { "id": 1 }, "geometry": { "type": "MultiPolygon", "coordinates": [ [ [ [ 85.528412695880249, 28.293942584029292 ], [ 85.528961044087183, 28.293809387901987 ], [ 85.529433758058644, 28.293567969496412 ], [ 85.529537755132409, 28.293459747274767 ], [ 85.529906472030163, 28.293567969496412 ], [ 85.53005774050105, 28.29339314892983 ], [ 85.530142829015887, 28.293359849741748 ], [ 85.5300482862216, 28.293076806222373 ], [ 85.52987810919187, 28.292810411634242 ], [ 85.529897017750741, 28.292494067194884 ], [ 85.529774112118133, 28.292061173280636 ], [ 85.529764657838712, 28.291594977865678 ], [ 85.529783566397583, 28.290995580760612 ], [ 85.52992538058902, 28.290845730956974 ], [ 85.52986865491242, 28.290213029460528 ], [ 85.529963197706721, 28.28959697439014 ], [ 85.53003883194215, 28.288914314607538 ], [ 85.530019923383279, 28.288081796753186 ], [ 85.5300482862216, 28.287490705124579 ], [ 85.530019923383279, 28.287007839105229 ], [ 85.529793020676976, 28.286558272222035 ], [ 85.529443212338066, 28.286308512022231 ], [ 85.529225763911199, 28.285975497511096 ], [ 85.529131221116899, 28.285659132760767 ], [ 85.528885409851711, 28.285367743343301 ], [ 85.528582872909965, 28.285659132760767 ], [ 85.527864347673315, 28.285575878722856 ], [ 85.526956736848035, 28.28532611621857 ], [ 85.526105851699384, 28.284868216772381 ], [ 85.525472414977571, 28.284776636646846 ], [ 85.524999701006067, 28.284443617344522 ], [ 85.524243358651702, 28.283752598969393 ], [ 85.52365719332704, 28.283261390409621 ], [ 85.523033210884691, 28.282978320040947 ], [ 85.522191780015447, 28.282853435815543 ], [ 85.521255806351903, 28.282978320040947 ], [ 85.520612915350668, 28.283186460091137 ], [ 85.520480555438667, 28.283577762284111 ], [ 85.52036710408548, 28.285059702234889 ], [ 85.520537281115224, 28.286441717535034 ], [ 85.520972177969, 28.287990219391748 ], [ 85.521482709058205, 28.289172393820472 ], [ 85.522333594206884, 28.29107050558332 ], [ 85.523619376209325, 28.292668889238119 ], [ 85.525188786594683, 28.293518020792401 ], [ 85.52622875733195, 28.293950908781717 ], [ 85.527741442040693, 28.294150702644519 ], [ 85.528412695880249, 28.293942584029292 ] ] ] ] } }
]
}
