{
"type": "FeatureCollection",
"name": "video_locations",
"crs": { "type": "name", "properties": { "name": "urn:ogc:def:crs:OGC:1.3:CRS84" } },
"features": [
{ "type": "Feature", "properties": { "id": 2, "video": "Video 1", "location": "worksite" }, "geometry": { "type": "Point", "coordinates": [ 85.207845981619954, 28.073315927857625 ] } },
{ "type": "Feature", "properties": { "id": 3, "video": "Video 1&2", "location": "Rasuwagadi" }, "geometry": { "type": "Point", "coordinates": [ 85.377888731043285, 28.280406992599737 ] } },
{ "type": "Feature", "properties": { "id": 4, "video": "Video 1", "location": "Trishuli" }, "geometry": { "type": "Point", "coordinates": [ 85.148299424209526, 27.920566397222448 ] } },
{ "type": "Feature", "properties": { "id": 5, "video": "Video 1", "location": "Betrawati" }, "geometry": { "type": "Point", "coordinates": [ 85.185612754026721, 27.975662415397455 ] } },
{ "type": "Feature", "properties": { "id": 6, "video": "Video 2", "location": "Trishuli" }, "geometry": { "type": "Point", "coordinates": [ 85.148284878520059, 27.928136276131237 ] } },
{ "type": "Feature", "properties": { "id": 1, "video": "Video 2", "location": "worksite" }, "geometry": { "type": "Point", "coordinates": [ 85.203666008327076, 28.072555765257917 ] } },
{ "type": "Feature", "properties": { "id": 7, "video": "Video 2", "location": "Betrawati" }, "geometry": { "type": "Point", "coordinates": [ 85.183664556923887, 27.975850344096383 ] } }
]
}
